[
    {
        "Altitude(m)": 607895.7853780983,
        "Argument of Periapsis(deg)": 0.0,
        "Eccentricity": 0.0,
        "Inclination(deg)": 60.0,
        "Latitude(deg)": 40.99825289732235,
        "Longitude(deg)": -54.9113941975979,
        "Mean Anomaly(deg)": -229.09089999999998,
        "RAAN(deg)": 255.0,
        "Satellite Name": "Test1 1130",
        "Satellite Number": 1130,
        "Semi-Major Axis(m)": 6980739.136638005,
        "Time(s)": 0
    },
    {
        "Altitude(m)": 607795.0984484276,
        "Argument of Periapsis(deg)": 0.00010418945913296404,
        "Eccentricity": 0.0,
        "Inclination(deg)": 60.0,
        "Latitude(deg)": 40.53057755033923,
        "Longitude(deg)": -54.41480034785972,
        "Mean Anomaly(deg)": -228.4707938545382,
        "RAAN(deg)": 254.99957995086027,
        "Satellite Name": "Test1 1130",
        "Satellite Number": 1130,
        "Semi-Major Axis(m)": 6980739.136638005,
        "Time(s)": 10
    },
    {
        "Altitude(m)": 607694.587076975,
        "Argument of Periapsis(deg)": 0.0002083789182659281,
        "Eccentricity": 0.0,
        "Inclination(deg)": 60.0,
        "Latitude(deg)": 40.060392252758255,
        "Longitude(deg)": -53.925647339012066,
        "Mean Anomaly(deg)": -227.85068770907634,
        "RAAN(deg)": 254.9991599017205,
        "Satellite Name": "Test1 1130",
        "Satellite Number": 1130,
        "Semi-Major Axis(m)": 6980739.136638005,
        "Time(s)": 20
    },
    {
        "Altitude(m)": 607594.3149623881,
        "Argument of Periapsis(deg)": 0.00031256837739889213,
        "Eccentricity": 0.0,
        "Inclination(deg)": 60.0,
        "Latitude(deg)": 39.58777057815012,
        "Longitude(deg)": -53.44374956647342,
        "Mean Anomaly(deg)": -227.23058156361452,
        "RAAN(deg)": 254.9987398525808,
        "Satellite Name": "Test1 1130",
        "Satellite Number": 1130,
        "Semi-Major Axis(m)": 6980739.136638005,
        "Time(s)": 30
    },
    {
        "Altitude(m)": 607494.3459036414,
        "Argument of Periapsis(deg)": 0.0004167578365318562,
        "Eccentricity": 0.0,
        "Inclination(deg)": 60.0,
        "Latitude(deg)": 39.11278385993913,
        "Longitude(deg)": -52.96892446553251,
        "Mean Anomaly(deg)": -226.61047541815267,
        "RAAN(deg)": 254.99831980344106,
        "Satellite Name": "Test1 1130",
        "Satellite Number": 1130,
        "Semi-Major Axis(m)": 6980739.136638005,
        "Time(s)": 40
    },
    {
        "Altitude(m)": 607394.7437681824,
        "Argument of Periapsis(deg)": 0.0005209472956648203,
        "Eccentricity": 0.0,
        "Inclination(deg)": 60.0,
        "Latitude(deg)": 38.635501264762084,
        "Longitude(deg)": -52.50099353179484,
        "Mean Anomaly(deg)": -225.99036927269083,
        "RAAN(deg)": 254.9978997543013,
        "Satellite Name": "Test1 1130",
        "Satellite Number": 1130,
        "Semi-Major Axis(m)": 6980739.136638005,
        "Time(s)": 50
    },
    {
        "Altitude(m)": 607295.5724599021,
        "Argument of Periapsis(deg)": 0.0006251367547977843,
        "Eccentricity": 0.0,
        "Inclination(deg)": 60.0,
        "Latitude(deg)": 38.155989864288486,
        "Longitude(deg)": -52.03978181794021,
        "Mean Anomaly(deg)": -225.37026312722898,
        "RAAN(deg)": 254.99747970516154,
        "Satellite Name": "Test1 1130",
        "Satellite Number": 1130,
        "Semi-Major Axis(m)": 6980739.136638005,
        "Time(s)": 60
    },
    {
        "Altitude(m)": 607196.8958870779,
        "Argument of Periapsis(deg)": 0.0007293262139307483,
        "Eccentricity": 0.0,
        "Inclination(deg)": 60.0,
        "Latitude(deg)": 37.67431470543341,
        "Longitude(deg)": -51.58511742079567,
        "Mean Anomaly(deg)": -224.7501569817672,
        "RAAN(deg)": 254.99705965602183,
        "Satellite Name": "Test1 1130",
        "Satellite Number": 1130,
        "Semi-Major Axis(m)": 6980739.136638005,
        "Time(s)": 70
    },
    {
        "Altitude(m)": 607098.777930264,
        "Argument of Periapsis(deg)": 0.0008335156730637124,
        "Eccentricity": 0.0,
        "Inclination(deg)": 60.0,
        "Latitude(deg)": 37.19053887890796,
        "Longitude(deg)": -51.13683247264102,
        "Mean Anomaly(deg)": -224.13005083630534,
        "RAAN(deg)": 254.9966396068821,
        "Satellite Name": "Test1 1130",
        "Satellite Number": 1130,
        "Semi-Major Axis(m)": 6980739.136638005,
        "Time(s)": 80
    },
    {
        "Altitude(m)": 607001.2824101159,
        "Argument of Periapsis(deg)": 0.0009377051321966765,
        "Eccentricity": 0.0,
        "Inclination(deg)": 60.0,
        "Latitude(deg)": 36.704723586071914,
        "Longitude(deg)": -50.694762611965835,
        "Mean Anomaly(deg)": -223.50994469084353,
        "RAAN(deg)": 254.99621955774234,
        "Satellite Name": "Test1 1130",
        "Satellite Number": 1130,
        "Semi-Major Axis(m)": 6980739.136638005,
        "Time(s)": 90
    },
    {
        "Altitude(m)": 606904.4730552157,
        "Argument of Periapsis(deg)": 0.0010418945913296407,
        "Eccentricity": 0.0,
        "Inclination(deg)": 60.0,
        "Latitude(deg)": 36.216928204057666,
        "Longitude(deg)": -50.25874644743109,
        "Mean Anomaly(deg)": -222.88983854538174,
        "RAAN(deg)": 254.99579950860257,
        "Satellite Name": "Test1 1130",
        "Satellite Number": 1130,
        "Semi-Major Axis(m)": 6980739.136638005,
        "Time(s)": 100
    },
    {
        "Altitude(m)": 606808.4134698819,
        "Argument of Periapsis(deg)": 0.0011460840504626045,
        "Eccentricity": 0.0,
        "Inclination(deg)": 60.0,
        "Latitude(deg)": 35.7272103491484,
        "Longitude(deg)": -49.828626528717514,
        "Mean Anomaly(deg)": -222.2697323999199,
        "RAAN(deg)": 254.99537945946287,
        "Satellite Name": "Test1 1130",
        "Satellite Number": 1130,
        "Semi-Major Axis(m)": 6980739.136638005,
        "Time(s)": 110
    },
    {
        "Altitude(m)": 606713.1671019702,
        "Argument of Periapsis(deg)": 0.0012502735095955685,
        "Eccentricity": 0.0,
        "Inclination(deg)": 60.0,
        "Latitude(deg)": 35.235625938404134,
        "Longitude(deg)": -49.40424879925657,
        "Mean Anomaly(deg)": -221.64962625445807,
        "RAAN(deg)": 254.99495941032313,
        "Satellite Name": "Test1 1130",
        "Satellite Number": 1130,
        "Semi-Major Axis(m)": 6980739.136638005,
        "Time(s)": 120
    },
    {
        "Altitude(m)": 606618.7972107144,
        "Argument of Periapsis(deg)": 0.0013544629687285324,
        "Eccentricity": 0.0,
        "Inclination(deg)": 60.0,
        "Latitude(deg)": 34.74222924953467,
        "Longitude(deg)": -48.98546204439204,
        "Mean Anomaly(deg)": -221.0295201089962,
        "RAAN(deg)": 254.99453936118337,
        "Satellite Name": "Test1 1130",
        "Satellite Number": 1130,
        "Semi-Major Axis(m)": 6980739.136638005,
        "Time(s)": 130
    },
    {
        "Altitude(m)": 606525.3668345971,
        "Argument of Periapsis(deg)": 0.0014586524278614966,
        "Eccentricity": 0.0,
        "Inclination(deg)": 60.0,
        "Latitude(deg)": 34.24707297902466,
        "Longitude(deg)": -48.5721188484594,
        "Mean Anomaly(deg)": -220.40941396353435,
        "RAAN(deg)": 254.9941193120436,
        "Satellite Name": "Test1 1130",
        "Satellite Number": 1130,
        "Semi-Major Axis(m)": 6980739.136638005,
        "Time(s)": 140
    },
    {
        "Altitude(m)": 606432.9387592663,
        "Argument of Periapsis(deg)": 0.0015628418869944607,
        "Eccentricity": 0.0,
        "Inclination(deg)": 60.0,
        "Latitude(deg)": 33.75020829852726,
        "Longitude(deg)": -48.16407503560116,
        "Mean Anomaly(deg)": -219.78930781807256,
        "RAAN(deg)": 254.9936992629039,
        "Satellite Name": "Test1 1130",
        "Satellite Number": 1130,
        "Semi-Major Axis(m)": 6980739.136638005,
        "Time(s)": 150
    },
    {
        "Altitude(m)": 606341.5754855502,
        "Argument of Periapsis(deg)": 0.0016670313461274247,
        "Eccentricity": 0.0,
        "Inclination(deg)": 60.0,
        "Latitude(deg)": 33.25168490954256,
        "Longitude(deg)": -47.76118910769736,
        "Mean Anomaly(deg)": -219.1692016726107,
        "RAAN(deg)": 254.99327921376417,
        "Satellite Name": "Test1 1130",
        "Satellite Number": 1130,
        "Semi-Major Axis(m)": 6980739.136638005,
        "Time(s)": 160
    },
    {
        "Altitude(m)": 606251.339197519,
        "Argument of Periapsis(deg)": 0.0017712208052603888,
        "Eccentricity": 0.0,
        "Inclination(deg)": 60.0,
        "Latitude(deg)": 32.75155109640316,
        "Longitude(deg)": -47.36332319274579,
        "Mean Anomaly(deg)": -218.54909552714886,
        "RAAN(deg)": 254.9928591646244,
        "Satellite Name": "Test1 1130",
        "Satellite Number": 1130,
        "Semi-Major Axis(m)": 6980739.136638005,
        "Time(s)": 170
    },
    {
        "Altitude(m)": 606162.2917306762,
        "Argument of Periapsis(deg)": 0.001875410264393353,
        "Eccentricity": 0.0,
        "Inclination(deg)": 60.0,
        "Latitude(deg)": 32.249853777595426,
        "Longitude(deg)": -46.97034247836463,
        "Mean Anomaly(deg)": -217.92898938168705,
        "RAAN(deg)": 254.99243911548464,
        "Satellite Name": "Test1 1130",
        "Satellite Number": 1130,
        "Semi-Major Axis(m)": 6980739.136638005,
        "Time(s)": 180
    },
    {
        "Altitude(m)": 606074.494540241,
        "Argument of Periapsis(deg)": 0.0019795997235263173,
        "Eccentricity": 0.0,
        "Inclination(deg)": 60.0,
        "Latitude(deg)": 31.746638555446147,
        "Longitude(deg)": -46.58211464366573,
        "Mean Anomaly(deg)": -217.3088832362252,
        "RAAN(deg)": 254.99201906634494,
        "Satellite Name": "Test1 1130",
        "Satellite Number": 1130,
        "Semi-Major Axis(m)": 6980739.136638005,
        "Time(s)": 190
    }
]